IRIDIUM 26              
1 24903U 97043A   25296.57321693  .00000709  00000+0  23147-3 0  9996
2 24903  86.3960  56.6385 0002153  87.3958 272.7486 14.37262911475183
IRIDIUM 22              
1 24907U 97043E   25296.60957517  .00000650  00000+0  21680-3 0  9999
2 24907  86.3957  60.2741 0001983  90.2269 269.9155 14.36063294475204
DUMMY MASS 1            
1 24925U 97048A   25296.47474043  .00000805  00000+0  86518-4 0  9991
2 24925  86.3317  75.9638 0008610  61.3645 298.8445 14.87110748524192
DUMMY MASS 2            
1 24926U 97048B   25296.66019836  .00000786  00000+0  84929-4 0  9990
2 24926  86.3314  77.5102 0009569  69.2499 290.9750 14.86861752523998
IRIDIUM 29              
1 24944U 97051A   25296.51662327  .00000777  00000+0  25787-3 0  9993
2 24944  86.3910  90.0337 0001943  94.5250 265.6170 14.36588279471693
IRIDIUM 33              
1 24946U 97051C   25296.43114097  .00000613  00000+0  20846-3 0  9992
2 24946  86.3825  89.3414 0008784  32.7808 327.3931 14.34980728471133
IRIDIUM 28              
1 24948U 97051E   25296.47872436  .00000749  00000+0  24380-3 0  9993
2 24948  86.3917  87.4900 0002337  77.8447 282.3012 14.37493787472276
IRIDIUM 36              
1 24967U 97056C   25296.49150777  .00000637  00000+0  20537-3 0  9994
2 24967  86.3927 119.1192 0002015  81.4239 278.7187 14.37714383470657
